
# Worst residual: 138.21 km
# MJD 59168.000000 (2020 Nov 15  0:00)
A10pgty = A10pgtz = ZTF0Dxq
1 89977U 00000AAW 20320.49919926  .00000000  00000-0  00000-0 0 10875
2 89977 012.2766 299.2470 5344793 263.0261 030.2411 01.01959879    04

# Worst residual: 127.57 km
# MJD 59169.000000 (2020 Nov 16  0:00)
A10pgty = A10pgtz = ZTF0Dxq
1 89977U 00000AAW 20321.49919926  .00000000  00000-0  00000-0 0 10876
2 89977 012.2819 299.4722 5300330 263.7399 034.9739 01.01974918    08

# Worst residual: 115.71 km
# MJD 59170.000000 (2020 Nov 17  0:00)
A10pgty = A10pgtz = ZTF0Dxq
1 89977U 00000AAW 20322.49919926  .00000000  00000-0  00000-0 0 10877
2 89977 012.2796 299.6565 5255811 264.4907 039.7192 01.01984680    08

# Worst residual: 118.02 km
# MJD 59171.000000 (2020 Nov 18  0:00)
A10pgty = A10pgtz = ZTF0Dxq
1 89977U 00000AAW 20323.49919926  .00000000  00000-0  00000-0 0 10878
2 89977 012.2926 299.8673 5210576 265.2318 044.4616 01.01994531    09

# Worst residual: 127.52 km
# MJD 59172.000000 (2020 Nov 19  0:00)
A10pgty = A10pgtz = ZTF0Dxq
1 89977U 00000AAW 20324.49919926  .00000000  00000-0  00000-0 0 10879
2 89977 012.2847 300.1290 5164673 265.9281 049.1987 01.01990977    07

# Worst residual: 136.56 km
# MJD 59173.000000 (2020 Nov 20  0:00)
A10pgty = A10pgtz = ZTF0Dxq
1 89977U 00000AAW 20325.49919926  .00000000  00000-0  00000-0 0 10870
2 89977 012.2869 300.3755 5119967 266.6538 053.9210 01.01985632    02

# Worst residual: 144.17 km
# MJD 59174.000000 (2020 Nov 21  0:00)
A10pgty = A10pgtz = ZTF0Dxq
1 89977U 00000AAW 20326.49919926  .00000000  00000-0  00000-0 0 10871
2 89977 012.2866 300.6244 5075607 267.3866 058.6440 01.01981285    06

# Worst residual: 160.24 km
# MJD 59175.000000 (2020 Nov 22  0:00)
A10pgty = A10pgtz = ZTF0Dxq
1 89977U 00000AAW 20327.49919926  .00000000  00000-0  00000-0 0 10872
2 89977 012.2893 300.8747 5031819 268.1238 063.3500 01.01973513    00

# Worst residual: 171.04 km
# MJD 59176.000000 (2020 Nov 23  0:00)
A10pgty = A10pgtz = ZTF0Dxq
1 89977U 00000AAW 20328.49919926  .00000000  00000-0  00000-0 0 10873
2 89977 012.2889 301.1322 4987530 268.8720 068.0495 01.01964539    03

# Worst residual: 181.40 km
# MJD 59177.000000 (2020 Nov 24  0:00)
A10pgty = A10pgtz = ZTF0Dxq
1 89977U 00000AAW 20329.49919926  .00000000  00000-0  00000-0 0 10874
2 89977 012.2879 301.3949 4943274 269.6302 072.7356 01.01953694    09

# Worst residual: 191.08 km
# MJD 59178.000000 (2020 Nov 25  0:00)
A10pgty = A10pgtz = ZTF0Dxq
1 89977U 00000AAW 20330.49919926  .00000000  00000-0  00000-0 0 10876
2 89977 012.2863 301.6632 4898952 270.3984 077.4074 01.01941101    00

# Worst residual: 197.70 km
# MJD 59179.000000 (2020 Nov 26  0:00)
A10pgty = A10pgtz = ZTF0Dxq
1 89977U 00000AAW 20331.49919926  .00000000  00000-0  00000-0 0 10877
2 89977 012.2826 301.9491 4853558 271.1686 082.0671 01.01925076    04

# Worst residual: 201.65 km
# MJD 59180.000000 (2020 Nov 27  0:00)
A10pgty = A10pgtz = ZTF0Dxq
1 89977U 00000AAW 20332.49919926  .00000000  00000-0  00000-0 0 10878
2 89977 012.2824 302.2685 4808814 271.9294 086.6896 01.01900355    01

# Worst residual: 213.03 km
# MJD 59181.000000 (2020 Nov 28  0:00)
A10pgty = A10pgtz = ZTF0Dxq
1 89977U 00000AAW 20333.49919926  .00000000  00000-0  00000-0 0 10879
2 89977 012.2762 302.5192 4765849 272.7492 091.3330 01.01899129    09

# Worst residual: 220.03 km
# MJD 59182.000000 (2020 Nov 29  0:00)
A10pgty = A10pgtz = ZTF0Dxq
1 89977U 00000AAW 20334.49919926  .00000000  00000-0  00000-0 0 10870
2 89977 012.2720 302.8040 4719736 273.5554 095.9628 01.01876527    07

# Worst residual: 214.68 km
# MJD 59183.000000 (2020 Nov 30  0:00)
A10pgty = A10pgtz = ZTF0Dxq
1 89977U 00000AAW 20335.49919926  .00000000  00000-0  00000-0 0 10871
2 89977 012.2602 303.1317 4674342 274.3587 100.5529 01.01851003    00

# Worst residual: 226.26 km
# MJD 59184.000000 (2020 Dec  1  0:00)
A10pgty = A10pgtz = ZTF0Dxq
1 89977U 00000AAW 20336.49919926  .00000000  00000-0  00000-0 0 10872
2 89977 012.2583 303.4112 4629171 275.1816 105.1737 01.01836818    07

# Worst residual: 226.35 km
# MJD 59185.000000 (2020 Dec  2  0:00)
A10pgty = A10pgtz = ZTF0Dxq
1 89977U 00000AAW 20337.49919926  .00000000  00000-0  00000-0 0 10873
2 89977 012.2465 303.7637 4585103 275.9593 109.7627 01.01812573    07

# Worst residual: 222.25 km
# MJD 59186.000000 (2020 Dec  3  0:00)
A10pgty = A10pgtz = ZTF0Dxq
1 89977U 00000AAW 20338.49919926  .00000000  00000-0  00000-0 0 10874
2 89977 012.2421 304.0421 4537172 276.8493 114.3303 01.01784084    04

# Worst residual: 210.17 km
# MJD 59187.000000 (2020 Dec  4  0:00)
A10pgty = A10pgtz = ZTF0Dxq
1 89977U 00000AAW 20339.49919926  .00000000  00000-0  00000-0 0 10875
2 89977 012.2166 304.3625 4492688 277.7001 118.8821 01.01751907    08

# Worst residual: 212.54 km
# MJD 59188.000000 (2020 Dec  5  0:00)
A10pgty = A10pgtz = ZTF0Dxq
1 89977U 00000AAW 20340.49919926  .00000000  00000-0  00000-0 0 10877
2 89977 012.2107 304.6898 4448631 278.5675 123.4364 01.01742942    06

# Worst residual: 213.05 km
# MJD 59189.000000 (2020 Dec  6  0:00)
A10pgty = A10pgtz = ZTF0Dxq
1 89977U 00000AAW 20341.49919926  .00000000  00000-0  00000-0 0 10878
2 89977 012.2042 304.9751 4402944 279.4701 127.9796 01.01718226    08

# Worst residual: 213.31 km
# MJD 59190.000000 (2020 Dec  7  0:00)
A10pgty = A10pgtz = ZTF0Dxq
1 89977U 00000AAW 20342.49919926  .00000000  00000-0  00000-0 0 10879
2 89977 012.1996 305.2018 4357822 280.4522 132.4990 01.01691140    04

# Worst residual: 219.91 km
# MJD 59191.000000 (2020 Dec  8  0:00)
A10pgty = A10pgtz = ZTF0Dxq
1 89977U 00000AAW 20343.49919926  .00000000  00000-0  00000-0 0 10870
2 89977 012.1747 305.6157 4312627 281.2864 136.9995 01.01666758    09

# Worst residual: 214.50 km
# MJD 59192.000000 (2020 Dec  9  0:00)
A10pgty = A10pgtz = ZTF0Dxq
1 89977U 00000AAW 20344.49919926  .00000000  00000-0  00000-0 0 10871
2 89977 012.1675 306.0187 4268465 282.1441 141.4838 01.01640460    07

# Worst residual: 193.18 km
# MJD 59193.000000 (2020 Dec 10  0:00)
A10pgty = A10pgtz = ZTF0Dxq
1 89977U 00000AAW 20345.49919926  .00000000  00000-0  00000-0 0 10872
2 89977 012.1279 306.2522 4224004 283.1595 145.9771 01.01630967    00

# Worst residual: 185.18 km
# MJD 59194.000000 (2020 Dec 11  0:00)
A10pgty = A10pgtz = ZTF0Dxq
1 89977U 00000AAW 20346.49919926  .00000000  00000-0  00000-0 0 10873
2 89977 012.1021 306.5982 4179383 284.1037 150.4374 01.01601019    05

# Worst residual: 177.64 km
# MJD 59195.000000 (2020 Dec 12  0:00)
A10pgty = A10pgtz = ZTF0Dxq
1 89977U 00000AAW 20347.49919926  .00000000  00000-0  00000-0 0 10874
2 89977 012.0996 306.9004 4133048 285.1160 154.8558 01.01563047    00

# Worst residual: 152.30 km
# MJD 59196.000000 (2020 Dec 13  0:00)
A10pgty = A10pgtz = ZTF0Dxq
1 89977U 00000AAW 20348.49919926  .00000000  00000-0  00000-0 0 10875
2 89977 012.0810 307.1905 4089352 286.1472 159.2932 01.01540882    00
